stk.v.4.3 

BEGIN Ephemeris 
 
NumberOfEphemerisPoints		146 
ScenarioEpoch	    1 Sep 2020  9:33:56.778049171 
InterpolationMethod		Lagrange 
InterpolationOrder		5 
CentralBody				Earth 
CoordinateSystem			TEME 
CoordinateSystemEpoch	  1 Sep 2020  9:33:56.778049171 
DistanceUnit			Kilometers 
 
EphemerisTimePosVel 
 
       0.00000000   -4005.93683399    5928.14424084       0.03351322 -0.383230490 -0.270471170  7.450941570
 END Ephemeris 
